{
    "links": {
        "self": "http://www.neowsapp.com/rest/v1/neo/3472550?api_key=iIulBulltgU6a56xZRHN4H3l9WmuAYTsLGpBGhQ2"
    },
    "id": "3472550",
    "neo_reference_id": "3472550",
    "name": "(2009 UL20)",
    "designation": "2009 UL20",
    "nasa_jpl_url": "http://ssd.jpl.nasa.gov/sbdb.cgi?sstr=3472550",
    "absolute_magnitude_h": 23.9,
    "estimated_diameter": {
        "kilometers": {
            "estimated_diameter_min": 0.04411182,
            "estimated_diameter_max": 0.0986370281
        },
        "meters": {
            "estimated_diameter_min": 44.1118199997,
            "estimated_diameter_max": 98.6370281305
        },
        "miles": {
            "estimated_diameter_min": 0.0274098057,
            "estimated_diameter_max": 0.0612901888
        },
        "feet": {
            "estimated_diameter_min": 144.7238235278,
            "estimated_diameter_max": 323.6123073718
        }
    },
    "is_potentially_hazardous_asteroid": false,
    "close_approach_data": [
        {
            "close_approach_date": "2009-09-28",
            "close_approach_date_full": "2009-Sep-28 09:27",
            "epoch_date_close_approach": 1254130020000,
            "relative_velocity": {
                "kilometers_per_second": "5.6726610139",
                "kilometers_per_hour": "20421.5796501086",
                "miles_per_hour": "12689.1754220355"
            },
            "miss_distance": {
                "astronomical": "0.1085122918",
                "lunar": "42.2112815102",
                "kilometers": "16233207.722098466",
                "miles": "10086847.5451761908"
            },
            "orbiting_body": "Earth"
        }
    ],
    "orbital_data": {
        "orbit_id": "11",
        "orbit_determination_date": "2017-04-06 08:59:23",
        "first_observation_date": "2009-10-25",
        "last_observation_date": "2009-11-18",
        "data_arc_in_days": 24,
        "observations_used": 32,
        "orbit_uncertainty": "7",
        "minimum_orbit_intersection": ".100777",
        "jupiter_tisserand_invariant": "3.258",
        "epoch_osculation": "2459000.5",
        "eccentricity": ".5527956818708764",
        "semi_major_axis": "2.464642185516184",
        "inclination": "2.047093934897594",
        "ascending_node_longitude": "194.7020116526937",
        "orbital_period": "1413.283352972214",
        "perihelion_distance": "1.102198628006038",
        "perihelion_argument": "170.4203753406418",
        "aphelion_distance": "3.82708574302633",
        "perihelion_time": "2459349.562307295604",
        "mean_anomaly": "271.0847585078093",
        "mean_motion": ".2547259891251814",
        "equinox": "J2000",
        "orbit_class": {
            "orbit_class_type": "AMO",
            "orbit_class_description": "Near-Earth asteroid orbits similar to that of 1221 Amor",
            "orbit_class_range": "1.017 AU < q (perihelion) < 1.3 AU"
        }
    },
    "is_sentry_object": false
}